#dP2018 12  6  0  0  0.00000000      96 __u+U ITR00 FIT  IAC
## 2030 345600.00000000   900.00000000 58458 0.0000000000000
+   96   C01C02C03C04C05C06C07C08C09C10C11C12C13C14E01E02E03
+        E04E05E07E08E09E11E12E13E14E15E18E19E21E24E25E26E27
+        E30E31E33E36G01G02G03G04G05G06G07G08G09G10G11G12G13
+        G14G15G16G17G18G19G20G21G22G23G24G25G26G27G28G29G30
+        G31G32J01J02J03R01R02R03R04R05R07R08R09R10R11R13R14
+        R15R16R17R18R19R20R21R22R23R24R26  0  0  0  0  0  0
++        12 12 12 12 12  8  8  8  8  8  7  7  8  8  5  5  5
++         5  5  5  5  5  5  5  6  5  6  5  5  4  5  5  5  4
++         5  5  6  6  3  3  3  4  3  3  3  3  3  3  4  3  3
++         3  3  3  3  4  3  3  3  3  3  3  3  3  3  3  3  4
++         3  3 10  9  9  5  5  6  6  6  5  5  5  5  5  5  5
++         5  5  5  5  6  5  5  5  5  5  8  0  0  0  0  0  0
%c M  cc GPS ccc cccc cccc cccc cccc ccccc ccccc ccccc ccccc
%c cc cc ccc ccc cccc cccc cccc cccc ccccc ccccc ccccc ccccc
%f  0.0000000  0.000000000  0.00000000000  0.000000000000000
%f  0.0000000  0.000000000  0.00000000000  0.000000000000000
%i    0    0    0    0      0      0      0      0         0
%i    0    0    0    0      0      0      0      0         0
/* INFORMATION & ANALYSIS CENTER (IAC) OF MCC   (RAPID DATA)
/* S/V CLOCKS ARE ALIGNED TO GPS & GLONASS TIME RESPECTIVELY
/* USING THE BROADCAST EPHEMERIS                            
/* PCV:IGS14_2029 OL/AL:FES2004  NONE     YN ORB:CoN CLK:CoN
*  2018 12 06  2  0  0.00000000
PC01 -32293.555032  27077.847052   -860.140327    -25.475623
PC02   4426.891602  41922.804723   1015.610296   -150.149341
PC03 -14750.895206  39540.906785   -206.715221   -238.196535
PC04 -39599.672149  14404.233537   -396.727932   -263.063993
PC05  21916.280177  36017.958425   1272.814735     69.472768
PC06 -10800.295507  35650.906518  20355.580313    121.701914
PC07 -15774.197084  21149.549779 -32815.553618   -169.265966
PC08 -24656.503903  30511.530470  15174.481321     53.613095
PC09   -762.452144  42032.450687   5192.529993    342.333403
PC10   3094.685792  27148.004058 -31895.495836   -297.137015
PC11  10934.458712  12615.997494  22405.044091    -74.333490
PC12  -8247.784351  26481.057756   2630.292501    256.490711
PC13 -12090.620128  31179.911409  25549.938085   -413.685352
PC14  14970.641862  23147.089626   4563.837201    389.639504
PE01 -17170.667213  10701.378737 -21599.319801   -492.890728
PE02  17137.490890 -10728.493403  21628.399411     37.967264
PE03   9395.732300 -19088.271292 -20591.284457   -107.525047
PE04   4639.396627  28657.088531   5778.480825   -173.067306
PE05  18014.783989   1736.565382 -23427.658621    147.488258
PE07 -16061.301898 -21473.561288  12544.042575    -88.335956
PE08  -4966.087044 -28615.960166  -5752.175739   6449.114916
PE09  16175.195750  21340.584492 -12599.175687   6597.018201
PE11  12628.233610  10538.047268  24609.727275   5714.168590
PE12  -5305.142134  23314.504859  17461.980633   5653.087086
PE13 -12516.363794 -10535.094521 -24659.429112   -114.002368
PE14 -14437.712983 -18541.334833 -20534.492853   6479.165442
PE15   4863.986989 -23167.677484 -17763.712985    434.180711
PE18   4799.916841  23024.304959  10128.818259   5703.953379
PE19 -10460.892445  17316.118411  21604.458783    -10.113276
PE21 -28847.409631  -2081.817581  -6299.382819   -507.955020
PE24  23557.440483  13382.181373 -11949.297243   6353.445312
PE25  28851.249070   2090.841184   6286.895593   1962.672340
PE26 -22771.094630   7893.397570 -17170.082308   5168.536543
PE27 -23202.888274 -13479.077191  12501.558631    576.214453
PE30  -4483.696955 -17066.682046  23761.806387   5293.300971
PE31   3974.270010  16947.174486 -23928.166563    965.924006
PE33 -19448.356551  22307.493132    482.229039    351.365966
PE36  22651.343862  -8320.867749  17153.700926    283.533763
PG01   3467.825081 -16892.852060 -20281.009464   -124.568301
PG02 -21025.795321  15503.539182   4689.405247    -77.905834
PG03  -7199.870844 -19233.070148 -16919.541427    167.033122
PG04  13220.788997 -11964.429993  19255.956130    -84.371189
PG05 -13017.187234   9523.017260  21009.492625      0.224842
PG06 -24546.149473   5381.780485  -8597.758643    321.497912
PG07 -12646.888431 -10569.921227  21151.953797     75.796560
PG08   6342.220479 -24752.728976   6961.062137   -124.597554
PG09  -8419.923606 -21128.364984  13667.054500    486.025777
PG10  23636.343544   9894.848099  -7306.026753    155.505233
PG11   5057.288028 -22730.014500 -13513.341899   -692.033413
PG12   2862.253640  18428.631051 -19177.447243    286.742780
PG13 -12539.773472  19890.061712  12206.991203    -82.456359
PG14  15422.812514  -5122.353439 -20672.519623    -95.000153
PG15  -2285.865754  25976.579815   3502.254850   -337.322839
PG16  14071.495480  -6830.834193  21373.847827     -5.004267
PG17 -13718.451445  -5880.014024 -21576.068695    -22.429709
PG18  12772.134057 -18544.513948 -14444.477153      2.452542
PG19 -15397.987236   5272.974868 -21303.767409   -376.779908
PG20  22430.014408  14072.883634   2699.957605    519.591203
PG21  15603.940645   8349.537230  20588.342427   -292.369031
PG22    457.647763 -17206.508403 -20005.837250   -591.579059
PG23  -2530.237700 -25682.646836   5573.710245   -204.339744
PG24  -7991.685873  18568.408893 -17197.342711    -59.158652
PG25  14032.697593  19461.236258 -11840.720357   -687.046564
PG26  20953.566606   -254.351530  16408.691953     59.515020
PG27  11725.932014 -17937.468802  15425.419081    -28.019024
PG28 -22015.566752 -13562.023070  -5260.775680    757.391738
PG29   4924.682110  23075.450648  12172.047200    321.551319
PG30 -21571.522628  -2952.444969  15343.813646    -15.376403
PG31  25255.792658  -6838.607264  -5756.482017     74.833226
PG32  15065.357545   3112.242197 -21619.274109   -330.204109
PJ01 -24441.992617  23839.649631  29810.201169   -250.408413
PJ02 -33648.038923  16731.608539 -14648.478744     -0.838369
PJ03 -19859.261409  31709.294252 -14963.740201      1.626003
PR01  -6656.018428  10245.341952  22382.811111     36.008122
PR02   6873.594314  22509.457496   9930.818050    342.972466
PR03  14742.498665  19399.459007  -7594.107384    150.813028
PR04  13859.217803   4494.837929 -20934.580621    286.337379
PR05   5138.177582 -12038.622699 -21887.750475     17.031539
PR07 -14835.543836 -19073.982481   8138.632694    -53.111004
PR08 -14074.476049  -5186.792227  20672.355490     20.133379
PR09  -3228.719182 -11124.370981  22748.248423     42.263338
PR10 -19133.264362  -7651.196809  15073.256380     37.068868
PR11 -25428.430620    346.027901  -2237.994491    -49.244760
PR13   2262.606481  10841.810600 -22990.565040    -17.627071
PR14  19099.851139   7693.203973 -15033.025643     33.688612
PR15  25472.271941     46.542193   1438.006984     98.816947
PR16  17374.095747  -7938.059146  16952.194348    108.099753
PR17   5722.632955  10469.569594  22552.097885    185.573711
PR18  14416.148527  -5859.064279  20211.700029     27.835218
PR19  15799.686900 -18867.254158   6733.400584    -62.023484
PR20   7197.509635 -21184.566654 -12202.480263   -361.401637
PR21  -5942.223376 -10047.260987 -22680.013236    -18.328124
PR22 -15148.622035   8220.430355 -18846.915565    -64.580403
PR23 -14214.292674  21073.489405  -2104.420985    195.024729
PR24  -5910.752598  20912.140672  13343.511305   -174.572920
PR26   7911.540698 -21832.492637 -10574.717528      8.477052
EOF
